{
  "type": "FeatureCollection",
  "features": [
    {
      "type": "Feature",
      "properties": {
        "norad_id": 33886,
        "name": "IRIDIUM 33 DEB",
        "group": "iridium-33-debris",
        "lat": -41.88253397019085,
        "lon": 61.63976252803787,
        "alt_km": 779.2218456770943,
        "timestamp": "2025-12-18T07:01:54.974019+00:00",
        "meta_object_name": "IRIDIUM 33 DEB",
        "meta_object_id": "1997-051BF",
        "meta_epoch": "2025-12-17T18:23:51.709344",
        "meta_mean_motion": 14.36057926,
        "meta_eccentricity": 0.00127005,
        "meta_inclination": 86.3828,
        "meta_ra_of_asc_node": 65.113,
        "meta_arg_of_pericenter": 223.4919,
        "meta_mean_anomaly": 254.6704,
        "meta_ephemeris_type": 0,
        "meta_classification_type": "U",
        "meta_norad_cat_id": 33886,
        "meta_element_set_no": 999,
        "meta_rev_at_epoch": 88124,
        "meta_bstar": 0.00015934351,
        "meta_mean_motion_dot": 4.83e-06,
        "meta_mean_motion_ddot": 0,
        "tle_line1": "1 33886U 97051BF  25351.76657071  .00000483  00000+0  15934-3 0  9994",
        "tle_line2": "2 33886  86.3828  65.1130 0012700 223.4919 254.6704 14.36057926881245"
      },
      "geometry": {
        "type": "Point",
        "coordinates": [
          61.63976252803787,
          -41.88253397019085
        ]
      }
    },
    {
      "type": "Feature",
      "properties": {
        "norad_id": 33887,
        "name": "IRIDIUM 33 DEB",
        "group": "iridium-33-debris",
        "lat": -81.56331769116663,
        "lon": -24.835713741017614,
        "alt_km": 774.1198272097163,
        "timestamp": "2025-12-18T07:01:54.974029+00:00",
        "meta_object_name": "IRIDIUM 33 DEB",
        "meta_object_id": "1997-051BG",
        "meta_epoch": "2025-12-17T12:04:10.318080",
        "meta_mean_motion": 14.37225313,
        "meta_eccentricity": 0.00049044,
        "meta_inclination": 86.3042,
        "meta_ra_of_asc_node": 1.3395,
        "meta_arg_of_pericenter": 206.8502,
        "meta_mean_anomaly": 305.3018,
        "meta_ephemeris_type": 0,
        "meta_classification_type": "U",
        "meta_norad_cat_id": 33887,
        "meta_element_set_no": 999,
        "meta_rev_at_epoch": 88233,
        "meta_bstar": 0.00012790558,
        "meta_mean_motion_dot": 4e-06,
        "meta_mean_motion_ddot": 0,
        "tle_line1": "1 33887U 97051BG  25351.50289720  .00000400  00000+0  12791-3 0  9996",
        "tle_line2": "2 33887  86.3042   1.3395 0004904 206.8502 305.3018 14.37225313882330"
      },
      "geometry": {
        "type": "Point",
        "coordinates": [
          -24.835713741017614,
          -81.56331769116663
        ]
      }
    },
    {
      "type": "Feature",
      "properties": {
        "norad_id": 33953,
        "name": "IRIDIUM 33 DEB",
        "group": "iridium-33-debris",
        "lat": 44.66525369037496,
        "lon": -132.2131518921481,
        "alt_km": 696.0597362237095,
        "timestamp": "2025-12-18T07:01:54.974040+00:00",
        "meta_object_name": "IRIDIUM 33 DEB",
        "meta_object_id": "1997-051BN",
        "meta_epoch": "2025-12-17T16:09:30.671424",
        "meta_mean_motion": 14.55371526,
        "meta_eccentricity": 0.00181202,
        "meta_inclination": 86.3847,
        "meta_ra_of_asc_node": 51.6385,
        "meta_arg_of_pericenter": 87.8438,
        "meta_mean_anomaly": 42.2759,
        "meta_ephemeris_type": 0,
        "meta_classification_type": "U",
        "meta_norad_cat_id": 33953,
        "meta_element_set_no": 999,
        "meta_rev_at_epoch": 88375,
        "meta_bstar": 0.00082600684,
        "meta_mean_motion_dot": 3.613e-05,
        "meta_mean_motion_ddot": 0,
        "tle_line1": "1 33953U 97051BN  25351.67327166  .00003613  00000+0  82601-3 0  9991",
        "tle_line2": "2 33953  86.3847  51.6385 0018120  87.8438  42.2759 14.55371526883758"
      },
      "geometry": {
        "type": "Point",
        "coordinates": [
          -132.2131518921481,
          44.66525369037496
        ]
      }
    },
    {
      "type": "Feature",
      "properties": {
        "norad_id": 33960,
        "name": "IRIDIUM 33 DEB",
        "group": "iridium-33-debris",
        "lat": 1.904600713422669,
        "lon": 106.77050651405504,
        "alt_km": 618.0366182155849,
        "timestamp": "2025-12-18T07:01:54.974051+00:00",
        "meta_object_name": "IRIDIUM 33 DEB",
        "meta_object_id": "1997-051BV",
        "meta_epoch": "2025-12-17T19:11:44.757312",
        "meta_mean_motion": 14.85444413,
        "meta_eccentricity": 0.00074559,
        "meta_inclination": 86.2539,
        "meta_ra_of_asc_node": 287.1279,
        "meta_arg_of_pericenter": 54.0828,
        "meta_mean_anomaly": 8.2478,
        "meta_ephemeris_type": 0,
        "meta_classification_type": "U",
        "meta_norad_cat_id": 33960,
        "meta_element_set_no": 999,
        "meta_rev_at_epoch": 88942,
        "meta_bstar": 0.0022545906,
        "meta_mean_motion_dot": 0.000195,
        "meta_mean_motion_ddot": 0,
        "tle_line1": "1 33960U 97051BV  25351.79982358  .00019500  00000+0  22546-2 0  9995",
        "tle_line2": "2 33960  86.2539 287.1279 0007455  54.0828   8.2478 14.85444413889428"
      },
      "geometry": {
        "type": "Point",
        "coordinates": [
          106.77050651405504,
          1.904600713422669
        ]
      }
    },
    {
      "type": "Feature",
      "properties": {
        "norad_id": 33966,
        "name": "IRIDIUM 33 DEB",
        "group": "iridium-33-debris",
        "lat": 33.60391551541711,
        "lon": -138.75881377430676,
        "alt_km": 719.7358205786277,
        "timestamp": "2025-12-18T07:01:54.974061+00:00",
        "meta_object_name": "IRIDIUM 33 DEB",
        "meta_object_id": "1997-051CB",
        "meta_epoch": "2025-12-17T16:02:50.820000",
        "meta_mean_motion": 14.49613183,
        "meta_eccentricity": 0.00079463,
        "meta_inclination": 86.3919,
        "meta_ra_of_asc_node": 43.9121,
        "meta_arg_of_pericenter": 172.4415,
        "meta_mean_anomaly": 317.6514,
        "meta_ephemeris_type": 0,
        "meta_classification_type": "U",
        "meta_norad_cat_id": 33966,
        "meta_element_set_no": 999,
        "meta_rev_at_epoch": 88513,
        "meta_bstar": 0.00042551203,
        "meta_mean_motion_dot": 1.654e-05,
        "meta_mean_motion_ddot": 0,
        "tle_line1": "1 33966U 97051CB  25351.66864375  .00001654  00000+0  42551-3 0  9995",
        "tle_line2": "2 33966  86.3919  43.9121 0007946 172.4415 317.6514 14.49613183885137"
      },
      "geometry": {
        "type": "Point",
        "coordinates": [
          -138.75881377430676,
          33.60391551541711
        ]
      }
    },
    {
      "type": "Feature",
      "properties": {
        "norad_id": 34071,
        "name": "IRIDIUM 33 DEB",
        "group": "iridium-33-debris",
        "lat": -30.24275768272738,
        "lon": -162.44942716313327,
        "alt_km": 736.6880472061757,
        "timestamp": "2025-12-18T07:01:54.974072+00:00",
        "meta_object_name": "IRIDIUM 33 DEB",
        "meta_object_id": "1997-051CE",
        "meta_epoch": "2025-12-17T13:29:52.397664",
        "meta_mean_motion": 14.49486285,
        "meta_eccentricity": 0.00099928,
        "meta_inclination": 86.3453,
        "meta_ra_of_asc_node": 15.7325,
        "meta_arg_of_pericenter": 94.7771,
        "meta_mean_anomaly": 265.4575,
        "meta_ephemeris_type": 0,
        "meta_classification_type": "U",
        "meta_norad_cat_id": 34071,
        "meta_element_set_no": 999,
        "meta_rev_at_epoch": 88404,
        "meta_bstar": 0.00046266915,
        "meta_mean_motion_dot": 1.793e-05,
        "meta_mean_motion_ddot": 0,
        "tle_line1": "1 34071U 97051CE  25351.56241201  .00001793  00000+0  46267-3 0  9991",
        "tle_line2": "2 34071  86.3453  15.7325 0009992  94.7771 265.4575 14.49486285884042"
      },
      "geometry": {
        "type": "Point",
        "coordinates": [
          -162.44942716313327,
          -30.24275768272738
        ]
      }
    },
    {
      "type": "Feature",
      "properties": {
        "norad_id": 34077,
        "name": "IRIDIUM 33 DEB",
        "group": "iridium-33-debris",
        "lat": -0.42822394983711565,
        "lon": 49.03447566916049,
        "alt_km": 674.2543439021802,
        "timestamp": "2025-12-18T07:01:54.974083+00:00",
        "meta_object_name": "IRIDIUM 33 DEB",
        "meta_object_id": "1997-051CL",
        "meta_epoch": "2025-12-17T15:21:03.084192",
        "meta_mean_motion": 14.64888728,
        "meta_eccentricity": 0.00096586,
        "meta_inclination": 86.3859,
        "meta_ra_of_asc_node": 49.3493,
        "meta_arg_of_pericenter": 24.1381,
        "meta_mean_anomaly": 132.1739,
        "meta_ephemeris_type": 0,
        "meta_classification_type": "U",
        "meta_norad_cat_id": 34077,
        "meta_element_set_no": 999,
        "meta_rev_at_epoch": 88404,
        "meta_bstar": 0.0007469396,
        "meta_mean_motion_dot": 4.015e-05,
        "meta_mean_motion_ddot": 0,
        "tle_line1": "1 34077U 97051CL  25351.63961903  .00004015  00000+0  74694-3 0  9998",
        "tle_line2": "2 34077  86.3859  49.3493 0009658  24.1381 132.1739 14.64888728884047"
      },
      "geometry": {
        "type": "Point",
        "coordinates": [
          49.03447566916049,
          -0.42822394983711565
        ]
      }
    }
  ]
}